OBJECT C                
1 57582U 23117C   24125.14501553  .00006766  00000+0  36288-3 0  9993
2 57582  97.4884 197.8186 0012492  90.1852 270.0812 15.15224452 40513
